ONEWEB-0564             
1 55801U 23029F   25232.83472981  .00000055  00000+0  10427-3 0  9997
2 55801  87.9290 334.3337 0002229 106.1340 254.0039 13.20773188121504
ONEWEB-0638             
1 55802U 23029G   25232.88005201 -.00000143  00000+0 -41995-3 0  9994
2 55802  87.9095 349.5391 0002351  95.5776 264.5622 13.14503922119945
ONEWEB-0639             
1 55803U 23029H   25232.79741098  .00000081  00000+0  17104-3 0  9990
2 55803  87.9262   4.7037 0001603  58.7151 301.4139 13.19725369119283
ONEWEB-0640             
1 55804U 23029J   25232.88956958 -.00000241  00000+0 -68347-3 0  9999
2 55804  87.9089 349.5234 0002354  85.1693 274.9705 13.14502270119966
ONEWEB-0641             
1 55805U 23029K   25232.86848931 -.00000089  00000+0 -25522-3 0  9997
2 55805  87.9269   4.6611 0001652  91.0179 269.1143 13.19725828119301
ONEWEB-0642             
1 55806U 23029L   25232.78792760  .00000068  00000+0  13816-3 0  9995
2 55806  87.9261   4.7133 0001287  68.0922 292.0347 13.19726679119281
ONEWEB-0643             
1 55807U 23029M   25232.78332275  .00000183  00000+0  45899-3 0  9991
2 55807  87.9092 349.5276 0001114  87.7875 272.3382 13.14502421119929
ONEWEB-0644             
1 55808U 23029N   25232.78318436  .00000054  00000+0  10173-3 0  9999
2 55808  87.9267   4.7210 0001484  83.9862 276.1440 13.19726649119287
ONEWEB-0645             
1 55809U 23029P   25232.77925248  .00000055  00000+0  10539-3 0  9991
2 55809  87.9251   4.7105 0001916  87.5486 272.5866 13.19725135119287
ONEWEB-0646             
1 55810U 23029Q   25232.88959233  .00000010  00000+0 -78986-5 0  9990
2 55810  87.9252   4.6822 0001581  93.8502 266.2811 13.19254110119282
ONEWEB-0648             
1 55811U 23029R   25232.82773720 -.00000103  00000+0 -31348-3 0  9993
2 55811  87.9078 349.4923 0001782  68.4554 291.6765 13.14504158119936
ONEWEB-0649             
1 55812U 23029S   25232.92377737 -.00000015  00000+0 -71020-4 0  9997
2 55812  87.9260   4.6687 0001722  82.2050 277.9278 13.19725967119323
ONEWEB-0650             
1 55813U 23029T   25232.91904039 -.00000082  00000+0 -23724-3 0  9999
2 55813  87.9260   4.6808 0001675  92.4996 267.6329 13.19724903119296
ONEWEB-0652             
1 55814U 23029U   25232.88480967 -.00000114  00000+0 -34136-3 0  9990
2 55814  87.9089 349.4934 0001894 103.7259 256.4082 13.14502575119912
ONEWEB-0653             
1 55815U 23029V   25232.79284731  .00000085  00000+0  19412-3 0  9997
2 55815  87.9089 349.5010 0002054  99.1487 260.9875 13.14502655119930
ONEWEB-0654             
1 55816U 23029W   25232.78808053  .00000123  00000+0  29725-3 0  9997
2 55816  87.9087 349.5002 0002155 108.1029 252.0335 13.14503170119953
ONEWEB-0656             
1 55817U 23029X   25232.82840489 -.00000019  00000+0 -78251-4 0  9997
2 55817  87.9301 334.2801 0002263 109.2484 250.8895 13.20771724121508
