[{"OBJECT_NAME":"ONEWEB-0564","OBJECT_ID":"2023-029F","EPOCH":"2025-08-20T20:02:00.655584","MEAN_MOTION":13.20773188,"ECCENTRICITY":0.0002229,"INCLINATION":87.929,"RA_OF_ASC_NODE":334.3337,"ARG_OF_PERICENTER":106.134,"MEAN_ANOMALY":254.0039,"EPHEMERIS_TYPE":0,"CLASSIFICATION_TYPE":"U","NORAD_CAT_ID":55801,"ELEMENT_SET_NO":999,"REV_AT_EPOCH":12150,"BSTAR":0.00010427,"MEAN_MOTION_DOT":5.5e-7,"MEAN_MOTION_DDOT":0},{"OBJECT_NAME":"ONEWEB-0638","OBJECT_ID":"2023-029G","EPOCH":"2025-08-20T21:07:16.493664","MEAN_MOTION":13.14503922,"ECCENTRICITY":0.0002351,"INCLINATION":87.9095,"RA_OF_ASC_NODE":349.5391,"ARG_OF_PERICENTER":95.5776,"MEAN_ANOMALY":264.5622,"EPHEMERIS_TYPE":0,"CLASSIFICATION_TYPE":"U","NORAD_CAT_ID":55802,"ELEMENT_SET_NO":999,"REV_AT_EPOCH":11994,"BSTAR":-0.00041995,"MEAN_MOTION_DOT":-1.43e-6,"MEAN_MOTION_DDOT":0},{"OBJECT_NAME":"ONEWEB-0639","OBJECT_ID":"2023-029H","EPOCH":"2025-08-20T19:08:16.308672","MEAN_MOTION":13.19725369,"ECCENTRICITY":0.0001603,"INCLINATION":87.9262,"RA_OF_ASC_NODE":4.7037,"ARG_OF_PERICENTER":58.7151,"MEAN_ANOMALY":301.4139,"EPHEMERIS_TYPE":0,"CLASSIFICATION_TYPE":"U","NORAD_CAT_ID":55803,"ELEMENT_SET_NO":999,"REV_AT_EPOCH":11928,"BSTAR":0.00017104,"MEAN_MOTION_DOT":8.1e-7,"MEAN_MOTION_DDOT":0},{"OBJECT_NAME":"ONEWEB-0640","OBJECT_ID":"2023-029J","EPOCH":"2025-08-20T21:20:58.811712","MEAN_MOTION":13.1450227,"ECCENTRICITY":0.0002354,"INCLINATION":87.9089,"RA_OF_ASC_NODE":349.5234,"ARG_OF_PERICENTER":85.1693,"MEAN_ANOMALY":274.9705,"EPHEMERIS_TYPE":0,"CLASSIFICATION_TYPE":"U","NORAD_CAT_ID":55804,"ELEMENT_SET_NO":999,"REV_AT_EPOCH":11996,"BSTAR":-0.00068347,"MEAN_MOTION_DOT":-2.41e-6,"MEAN_MOTION_DDOT":0},{"OBJECT_NAME":"ONEWEB-0641","OBJECT_ID":"2023-029K","EPOCH":"2025-08-20T20:50:37.476384","MEAN_MOTION":13.19725828,"ECCENTRICITY":0.0001652,"INCLINATION":87.9269,"RA_OF_ASC_NODE":4.6611,"ARG_OF_PERICENTER":91.0179,"MEAN_ANOMALY":269.1143,"EPHEMERIS_TYPE":0,"CLASSIFICATION_TYPE":"U","NORAD_CAT_ID":55805,"ELEMENT_SET_NO":999,"REV_AT_EPOCH":11930,"BSTAR":-0.00025522,"MEAN_MOTION_DOT":-8.9e-7,"MEAN_MOTION_DDOT":0},{"OBJECT_NAME":"ONEWEB-0642","OBJECT_ID":"2023-029L","EPOCH":"2025-08-20T18:54:36.944640","MEAN_MOTION":13.19726679,"ECCENTRICITY":0.0001287,"INCLINATION":87.9261,"RA_OF_ASC_NODE":4.7133,"ARG_OF_PERICENTER":68.0922,"MEAN_ANOMALY":292.0347,"EPHEMERIS_TYPE":0,"CLASSIFICATION_TYPE":"U","NORAD_CAT_ID":55806,"ELEMENT_SET_NO":999,"REV_AT_EPOCH":11928,"BSTAR":0.00013816,"MEAN_MOTION_DOT":6.8e-7,"MEAN_MOTION_DDOT":0},{"OBJECT_NAME":"ONEWEB-0643","OBJECT_ID":"2023-029M","EPOCH":"2025-08-20T18:47:59.085600","MEAN_MOTION":13.14502421,"ECCENTRICITY":0.0001114,"INCLINATION":87.9092,"RA_OF_ASC_NODE":349.5276,"ARG_OF_PERICENTER":87.7875,"MEAN_ANOMALY":272.3382,"EPHEMERIS_TYPE":0,"CLASSIFICATION_TYPE":"U","NORAD_CAT_ID":55807,"ELEMENT_SET_NO":999,"REV_AT_EPOCH":11992,"BSTAR":0.00045899,"MEAN_MOTION_DOT":1.83e-6,"MEAN_MOTION_DDOT":0},{"OBJECT_NAME":"ONEWEB-0644","OBJECT_ID":"2023-029N","EPOCH":"2025-08-20T18:47:47.128704","MEAN_MOTION":13.19726649,"ECCENTRICITY":0.0001484,"INCLINATION":87.9267,"RA_OF_ASC_NODE":4.721,"ARG_OF_PERICENTER":83.9862,"MEAN_ANOMALY":276.144,"EPHEMERIS_TYPE":0,"CLASSIFICATION_TYPE":"U","NORAD_CAT_ID":55808,"ELEMENT_SET_NO":999,"REV_AT_EPOCH":11928,"BSTAR":0.00010173,"MEAN_MOTION_DOT":5.4e-7,"MEAN_MOTION_DDOT":0},{"OBJECT_NAME":"ONEWEB-0645","OBJECT_ID":"2023-029P","EPOCH":"2025-08-20T18:42:07.414272","MEAN_MOTION":13.19725135,"ECCENTRICITY":0.0001916,"INCLINATION":87.9251,"RA_OF_ASC_NODE":4.7105,"ARG_OF_PERICENTER":87.5486,"MEAN_ANOMALY":272.5866,"EPHEMERIS_TYPE":0,"CLASSIFICATION_TYPE":"U","NORAD_CAT_ID":55809,"ELEMENT_SET_NO":999,"REV_AT_EPOCH":11928,"BSTAR":0.00010539,"MEAN_MOTION_DOT":5.5e-7,"MEAN_MOTION_DDOT":0},{"OBJECT_NAME":"ONEWEB-0646","OBJECT_ID":"2023-029Q","EPOCH":"2025-08-20T21:21:00.777312","MEAN_MOTION":13.1925411,"ECCENTRICITY":0.0001581,"INCLINATION":87.9252,"RA_OF_ASC_NODE":4.6822,"ARG_OF_PERICENTER":93.8502,"MEAN_ANOMALY":266.2811,"EPHEMERIS_TYPE":0,"CLASSIFICATION_TYPE":"U","NORAD_CAT_ID":55810,"ELEMENT_SET_NO":999,"REV_AT_EPOCH":11928,"BSTAR":-7.8986e-6,"MEAN_MOTION_DOT":1.0e-7,"MEAN_MOTION_DDOT":0},{"OBJECT_NAME":"ONEWEB-0648","OBJECT_ID":"2023-029R","EPOCH":"2025-08-20T19:51:56.494080","MEAN_MOTION":13.14504158,"ECCENTRICITY":0.0001782,"INCLINATION":87.9078,"RA_OF_ASC_NODE":349.4923,"ARG_OF_PERICENTER":68.4554,"MEAN_ANOMALY":291.6765,"EPHEMERIS_TYPE":0,"CLASSIFICATION_TYPE":"U","NORAD_CAT_ID":55811,"ELEMENT_SET_NO":999,"REV_AT_EPOCH":11993,"BSTAR":-0.00031348,"MEAN_MOTION_DOT":-1.03e-6,"MEAN_MOTION_DDOT":0},{"OBJECT_NAME":"ONEWEB-0649","OBJECT_ID":"2023-029S","EPOCH":"2025-08-20T22:10:14.364768","MEAN_MOTION":13.19725967,"ECCENTRICITY":0.0001722,"INCLINATION":87.926,"RA_OF_ASC_NODE":4.6687,"ARG_OF_PERICENTER":82.205,"MEAN_ANOMALY":277.9278,"EPHEMERIS_TYPE":0,"CLASSIFICATION_TYPE":"U","NORAD_CAT_ID":55812,"ELEMENT_SET_NO":999,"REV_AT_EPOCH":11932,"BSTAR":-7.102e-5,"MEAN_MOTION_DOT":-1.5e-7,"MEAN_MOTION_DDOT":0},{"OBJECT_NAME":"ONEWEB-0650","OBJECT_ID":"2023-029T","EPOCH":"2025-08-20T22:03:25.089696","MEAN_MOTION":13.19724903,"ECCENTRICITY":0.0001675,"INCLINATION":87.926,"RA_OF_ASC_NODE":4.6808,"ARG_OF_PERICENTER":92.4996,"MEAN_ANOMALY":267.6329,"EPHEMERIS_TYPE":0,"CLASSIFICATION_TYPE":"U","NORAD_CAT_ID":55813,"ELEMENT_SET_NO":999,"REV_AT_EPOCH":11929,"BSTAR":-0.00023724,"MEAN_MOTION_DOT":-8.2e-7,"MEAN_MOTION_DDOT":0},{"OBJECT_NAME":"ONEWEB-0652","OBJECT_ID":"2023-029U","EPOCH":"2025-08-20T21:14:07.555488","MEAN_MOTION":13.14502575,"ECCENTRICITY":0.0001894,"INCLINATION":87.9089,"RA_OF_ASC_NODE":349.4934,"ARG_OF_PERICENTER":103.7259,"MEAN_ANOMALY":256.4082,"EPHEMERIS_TYPE":0,"CLASSIFICATION_TYPE":"U","NORAD_CAT_ID":55814,"ELEMENT_SET_NO":999,"REV_AT_EPOCH":11991,"BSTAR":-0.00034136,"MEAN_MOTION_DOT":-1.14e-6,"MEAN_MOTION_DDOT":0},{"OBJECT_NAME":"ONEWEB-0653","OBJECT_ID":"2023-029V","EPOCH":"2025-08-20T19:01:42.007584","MEAN_MOTION":13.14502655,"ECCENTRICITY":0.0002054,"INCLINATION":87.9089,"RA_OF_ASC_NODE":349.501,"ARG_OF_PERICENTER":99.1487,"MEAN_ANOMALY":260.9875,"EPHEMERIS_TYPE":0,"CLASSIFICATION_TYPE":"U","NORAD_CAT_ID":55815,"ELEMENT_SET_NO":999,"REV_AT_EPOCH":11993,"BSTAR":0.00019412,"MEAN_MOTION_DOT":8.5e-7,"MEAN_MOTION_DDOT":0},{"OBJECT_NAME":"ONEWEB-0654","OBJECT_ID":"2023-029W","EPOCH":"2025-08-20T18:54:50.157792","MEAN_MOTION":13.1450317,"ECCENTRICITY":0.0002155,"INCLINATION":87.9087,"RA_OF_ASC_NODE":349.5002,"ARG_OF_PERICENTER":108.1029,"MEAN_ANOMALY":252.0335,"EPHEMERIS_TYPE":0,"CLASSIFICATION_TYPE":"U","NORAD_CAT_ID":55816,"ELEMENT_SET_NO":999,"REV_AT_EPOCH":11995,"BSTAR":0.00029725,"MEAN_MOTION_DOT":1.23e-6,"MEAN_MOTION_DDOT":0},{"OBJECT_NAME":"ONEWEB-0656","OBJECT_ID":"2023-029X","EPOCH":"2025-08-20T19:52:54.182496","MEAN_MOTION":13.20771724,"ECCENTRICITY":0.0002263,"INCLINATION":87.9301,"RA_OF_ASC_NODE":334.2801,"ARG_OF_PERICENTER":109.2484,"MEAN_ANOMALY":250.8895,"EPHEMERIS_TYPE":0,"CLASSIFICATION_TYPE":"U","NORAD_CAT_ID":55817,"ELEMENT_SET_NO":999,"REV_AT_EPOCH":12150,"BSTAR":-7.8251e-5,"MEAN_MOTION_DOT":-1.9e-7,"MEAN_MOTION_DDOT":0}]
